SL-3 R/B                
1 13403U 82079B   26093.79765839  .00009998  00000+0  39417-3 0  9992
2 13403  81.1475 163.4293 0025445  82.4910 277.9213 15.25145004381528
SL-14 R/B               
1 13553U 82092B   26093.55666280  .00000716  00000+0  77610-4 0  9994
2 13553  82.5651 118.1350 0019393 215.0194 259.5108 14.86690469332621
SL-3 R/B                
1 13819U 83010B   26093.73159984  .00023200  00000+0  45266-3 0  9992
2 13819  81.1033 331.5289 0015480 323.9367  36.0832 15.47228925361818
SL-3 R/B                
1 14208U 83075B   26093.78925780  .00018722  00000+0  48149-3 0  9992
2 14208  97.6135  99.3284 0022791 136.3850 223.9202 15.39048036334010
COSMOS 1536             
1 14699U 84013A   26093.47344886  .00011335  00000+0  46277-3 0  9990
2 14699  82.5419  83.2004 0013971 187.2704 172.8333 15.24186980276395
SL-14 R/B               
1 14820U 84027B   26093.80979108  .00000880  00000+0  97780-4 0  9998
2 14820  82.5426 221.4525 0016617 248.5390 111.4054 14.86005939251365
SL-8 R/B                
1 15483U 85006B   26093.78580179  .00000485  00000+0  16926-3 0  9998
2 15483  74.0460 214.9674 0017476 125.2686 346.4170 14.37802490157637
SL-12 R/B(2)            
1 15772U 85042D   26093.87782631  .00000239  00000+0  12885-3 0  9993
2 15772  71.1099  34.5111 0032838  86.3032 334.4931 14.21990259117976
SL-14 R/B               
1 15945U 85069B   26093.78691559  .00000821  00000+0  89774-4 0  9991
2 15945  82.5304   1.3406 0020291 107.7626 252.5807 14.86462344176561
SL-16 R/B               
1 16182U 85097B   26093.72286459 -.00000158  00000+0 -55333-4 0  9998
2 16182  71.0008  87.8491 0009232 229.9561 302.5407 14.16602742 90770
SL-14 R/B               
1 16496U 86006B   26093.75753093  .00001531  00000+0  15997-3 0  9998
2 16496  82.5261 236.1399 0076263 188.5155 171.4775 14.86861429152933
COSMOS 1743             
1 16719U 86034A   26093.85780145  .00076912  00000+0  91391-3 0  9993
2 16719  82.5323  47.3739 0005554 156.3545 203.7968 15.60862346184177
